{
  "links" : {
    "next" : "https://api.nasa.gov/neo/rest/v1/feed?start_date=2001-09-16&end_date=2001-09-16&detailed=true&api_key=t0TVs3DtDT2H8Oy2Zy8m2eVrNsAVKAexjcZXUckd",
    "prev" : "https://api.nasa.gov/neo/rest/v1/feed?start_date=2001-09-14&end_date=2001-09-14&detailed=true&api_key=t0TVs3DtDT2H8Oy2Zy8m2eVrNsAVKAexjcZXUckd",
    "self" : "https://api.nasa.gov/neo/rest/v1/feed?start_date=2001-09-15&end_date=2001-09-15&detailed=true&api_key=t0TVs3DtDT2H8Oy2Zy8m2eVrNsAVKAexjcZXUckd"
  },
  "element_count" : 6,
  "near_earth_objects" : {
    "2001-09-15" : [ {
      "links" : {
        "self" : "https://api.nasa.gov/neo/rest/v1/neo/3072273?api_key=t0TVs3DtDT2H8Oy2Zy8m2eVrNsAVKAexjcZXUckd"
      },
      "neo_reference_id" : "3072273",
      "name" : "(2001 FR85)",
      "nasa_jpl_url" : "http://ssd.jpl.nasa.gov/sbdb.cgi?sstr=3072273",
      "absolute_magnitude_h" : 24.8,
      "estimated_diameter" : {
        "kilometers" : {
          "estimated_diameter_min" : 0.0291443905,
          "estimated_diameter_max" : 0.0651688382
        },
        "meters" : {
          "estimated_diameter_min" : 29.1443904535,
          "estimated_diameter_max" : 65.1688382168
        },
        "miles" : {
          "estimated_diameter_min" : 0.018109479,
          "estimated_diameter_max" : 0.0404940262
        },
        "feet" : {
          "estimated_diameter_min" : 95.6180819754,
          "estimated_diameter_max" : 213.8085311752
        }
      },
      "is_potentially_hazardous_asteroid" : false,
      "close_approach_data" : [ {
        "close_approach_date" : "2001-09-15",
        "epoch_date_close_approach" : 1000537200000,
        "relative_velocity" : {
          "kilometers_per_second" : "2.947504385",
          "kilometers_per_hour" : "10611.0157859607",
          "miles_per_hour" : "6593.2725587821"
        },
        "miss_distance" : {
          "astronomical" : "0.0408412951",
          "lunar" : "15.8872642517",
          "kilometers" : "6109771",
          "miles" : "3796435.75"
        },
        "orbiting_body" : "Earth"
      } ],
      "orbital_data" : {
        "orbit_id" : "12",
        "orbit_determination_date" : "2017-04-06 09:16:27",
        "orbit_uncertainty" : "3",
        "minimum_orbit_intersection" : ".0032375",
        "jupiter_tisserand_invariant" : "6.159",
        "epoch_osculation" : "2458000.5",
        "eccentricity" : ".02795999367426239",
        "semi_major_axis" : ".9828802374555116",
        "inclination" : "5.245386712656529",
        "ascending_node_longitude" : "183.0540349371962",
        "orbital_period" : "355.9174909794037",
        "perihelion_distance" : ".955398912233698",
        "perihelion_argument" : "233.617203076761",
        "aphelion_distance" : "1.010361562677325",
        "perihelion_time" : "2457922.194003996697",
        "mean_anomaly" : "79.20419556683292",
        "mean_motion" : "1.011470380422615",
        "equinox" : "J2000"
      }
    }, {
      "links" : {
        "self" : "https://api.nasa.gov/neo/rest/v1/neo/3082923?api_key=t0TVs3DtDT2H8Oy2Zy8m2eVrNsAVKAexjcZXUckd"
      },
      "neo_reference_id" : "3082923",
      "name" : "(2001 SQ3)",
      "nasa_jpl_url" : "http://ssd.jpl.nasa.gov/sbdb.cgi?sstr=3082923",
      "absolute_magnitude_h" : 21.6,
      "estimated_diameter" : {
        "kilometers" : {
          "estimated_diameter_min" : 0.1272198785,
          "estimated_diameter_max" : 0.2844722965
        },
        "meters" : {
          "estimated_diameter_min" : 127.2198785394,
          "estimated_diameter_max" : 284.4722965033
        },
        "miles" : {
          "estimated_diameter_min" : 0.0790507431,
          "estimated_diameter_max" : 0.1767628354
        },
        "feet" : {
          "estimated_diameter_min" : 417.3880663071,
          "estimated_diameter_max" : 933.3080892598
        }
      },
      "is_potentially_hazardous_asteroid" : true,
      "close_approach_data" : [ {
        "close_approach_date" : "2001-09-15",
        "epoch_date_close_approach" : 1000537200000,
        "relative_velocity" : {
          "kilometers_per_second" : "13.839049025",
          "kilometers_per_hour" : "49820.576489847",
          "miles_per_hour" : "30956.5687639274"
        },
        "miss_distance" : {
          "astronomical" : "0.0582932125",
          "lunar" : "22.6760597229",
          "kilometers" : "8720540",
          "miles" : "5418692.5"
        },
        "orbiting_body" : "Earth"
      } ],
      "orbital_data" : {
        "orbit_id" : "12",
        "orbit_determination_date" : "2017-04-06 09:16:08",
        "orbit_uncertainty" : "0",
        "minimum_orbit_intersection" : ".0303541",
        "jupiter_tisserand_invariant" : "5.504",
        "epoch_osculation" : "2458000.5",
        "eccentricity" : ".2545074461802969",
        "semi_major_axis" : "1.110193439436659",
        "inclination" : "23.89713992939196",
        "ascending_node_longitude" : "356.1775272589462",
        "orbital_period" : "427.2641079854558",
        "perihelion_distance" : ".8276409423995149",
        "perihelion_argument" : "268.1774968410165",
        "aphelion_distance" : "1.392745936473804",
        "perihelion_time" : "2458074.749037146165",
        "mean_anomaly" : "297.43997477661",
        "mean_motion" : ".8425701884892577",
        "equinox" : "J2000"
      }
    }, {
      "links" : {
        "self" : "https://api.nasa.gov/neo/rest/v1/neo/3744322?api_key=t0TVs3DtDT2H8Oy2Zy8m2eVrNsAVKAexjcZXUckd"
      },
      "neo_reference_id" : "3744322",
      "name" : "(2016 CX247)",
      "nasa_jpl_url" : "http://ssd.jpl.nasa.gov/sbdb.cgi?sstr=3744322",
      "absolute_magnitude_h" : 22.6,
      "estimated_diameter" : {
        "kilometers" : {
          "estimated_diameter_min" : 0.0802703167,
          "estimated_diameter_max" : 0.1794898848
        },
        "meters" : {
          "estimated_diameter_min" : 80.2703167283,
          "estimated_diameter_max" : 179.4898847799
        },
        "miles" : {
          "estimated_diameter_min" : 0.049877647,
          "estimated_diameter_max" : 0.1115298092
        },
        "feet" : {
          "estimated_diameter_min" : 263.3540659348,
          "estimated_diameter_max" : 588.8775935812
        }
      },
      "is_potentially_hazardous_asteroid" : false,
      "close_approach_data" : [ {
        "close_approach_date" : "2001-09-15",
        "epoch_date_close_approach" : 1000537200000,
        "relative_velocity" : {
          "kilometers_per_second" : "20.5437747773",
          "kilometers_per_hour" : "73957.5891982778",
          "miles_per_hour" : "45954.369799341"
        },
        "miss_distance" : {
          "astronomical" : "0.4394894405",
          "lunar" : "170.9613952637",
          "kilometers" : "65746688",
          "miles" : "40853096"
        },
        "orbiting_body" : "Earth"
      } ],
      "orbital_data" : {
        "orbit_id" : "8",
        "orbit_determination_date" : "2017-04-06 08:28:12",
        "orbit_uncertainty" : "2",
        "minimum_orbit_intersection" : ".248486",
        "jupiter_tisserand_invariant" : "6.182",
        "epoch_osculation" : "2458000.5",
        "eccentricity" : ".4106330011530817",
        "semi_major_axis" : ".9571239300519767",
        "inclination" : "17.51596547091727",
        "ascending_node_longitude" : "341.7326486087845",
        "orbital_period" : "342.0193590605957",
        "perihelion_distance" : ".5640972581793013",
        "perihelion_argument" : "358.4167843139275",
        "aphelion_distance" : "1.350150601924652",
        "perihelion_time" : "2457976.318445473755",
        "mean_anomaly" : "25.45282715387434",
        "mean_motion" : "1.052571997645954",
        "equinox" : "J2000"
      }
    } ]
  }
}